STARLINK-31005          
1 58486U 23186P   24001.44662926  .00001533  00000+0  68403-4 0  9993
2 58486  43.0020  94.3634 0001284 241.6580 118.4142 15.25927916  5612
STARLINK-30987          
1 58487U 23186Q   23365.91667824  .00021514  00000+0  83040-3 0  9994
2 58487  43.0000  97.3196 0001298 282.7835  55.0950 15.25890095  5622
STARLINK-31000          
1 58488U 23186R   24001.58334491 -.00165350  00000+0 -64410-2 0  9995
2 58488  42.9999  93.5357 0001302 272.0904 144.7047 15.25976407  5591
STARLINK-30993          
1 58489U 23186S   24001.58334491 -.00148089  00000+0 -57535-2 0  9996
2 58489  43.0000  93.5052 0001263 277.7717 151.4510 15.25980515  5639
STARLINK-30978          
1 58490U 23186T   23365.91667824  .00025464  00000+0  98096-3 0  9993
2 58490  43.0000  97.2285 0001483 264.5159 110.6761 15.25874904  5570
STARLINK-30953          
1 58491U 23186U   24001.47606252  .00008718  00000+0  16344-3 0  9990
2 58491  43.0000  92.8491 0001318 282.1936  77.8775 15.48924689  5588
STARLINK-30986          
1 58492U 23186V   23365.91667824  .00024971  00000+0  96274-3 0  9993
2 58492  42.9996  97.1388 0001168 253.4771 159.1426 15.25856806  5627
STARLINK-30985          
1 58493U 23186W   24001.25001157  .00032631  00000+0  12527-2 0  9990
2 58493  42.9997  95.2310 0001423 261.1451 197.0969 15.25884675  5592
STARLINK-30981          
1 58494U 23186X   24001.25001157  .00033238  00000+0  12752-2 0  9995
2 58494  42.9997  95.2008 0002200 303.4189 167.2415 15.25897431  5587
STARLINK-31002          
1 58495U 23186Y   24001.58334491 -.00039175  00000+0 -14961-2 0  9994
2 58495  42.9995  93.2955 0000827 292.3579 223.9732 15.25902751  5840
2023-187A               
1 58496U 23187A   24001.44151423  .00002337  00000+0  32671-3 0  9990
2 58496  98.0052  78.3908 0012771 176.6369 183.4930 14.78512923  4171
2023-187B               
1 58497U 23187B   24001.44570343  .00001590  00000+0  22594-3 0  9990
2 58497  98.0072  78.3906 0012440 173.4620 186.6756 14.78268290  4165
2023-187C               
1 58498U 23187C   24001.44268244  .00002298  00000+0  32183-3 0  9996
2 58498  98.0057  78.3909 0012551 175.2281 184.9052 14.78458553  4161
2023-187D               
1 58499U 23187D   24001.42407252  .00001738  00000+0  20077-3 0  9996
2 58499  98.1433  79.3743 0037855 262.2509  97.4407 14.86496123  4180
DOORY-SAT               
1 58500U 23188A   24001.42927659  .00001836  00000+0  29719-3 0  9999
2 58500  46.9845 353.9529 0007471  98.1408 262.0332 14.75220775  4160
TLV R/B                 
1 58501U 23188B   24001.44962072  .00003317  00000+0  16498-3 0  9996
2 58501  46.9182 346.0219 0161405 147.6412 213.4515 15.09590198  4257
2023-189A               
1 58502U 23189A   24001.46023223  .00003436  00000+0  15759-3 0  9997
2 58502  97.4640   8.9403 0014095 183.1803 176.9345 15.21038219  4178
2023-189B               
1 58503U 23189B   24001.45351087  .00007103  00000+0  31737-3 0  9998
2 58503  97.4643   8.9497 0014229 186.4189 173.6867 15.21557448  4170
2023-189C               
1 58504U 23189C   24001.49491480  .00024459  00000+0  10216-2 0  9996
2 58504  97.4637   9.0455 0017603 192.7153 167.3642 15.23483547  4182
2023-190A               
1 58505U 23190A   24001.47470833  .00000145  00000+0  96009-4 0  9998
2 58505  86.5023 288.0460 0009506 196.7131 163.3730 13.94378618  3719
2023-190B               
1 58506U 23190B   24001.46284573  .00030837  00000+0  11092-2 0  9990
2 58506  86.5853 286.8715 0388273 280.9874  74.7909 14.78964628  3933
2023-190C               
1 58507U 23190C   24001.47500478  .00014553  00000+0  53020-3 0  9992
2 58507  86.5857 286.8771 0393641 281.0406  74.6788 14.77594505  3899
STARLINK-31026          
1 58508U 23191A   24001.58334491 -.00037933  00000+0 -14478-2 0  9998
2 58508  43.0003 137.5295 0001392 264.1665 357.1024 15.25908442  5248
STARLINK-31020          
1 58509U 23191B   24001.58334491  .00048963  00000+0  18719-2 0  9994
2 58509  43.0003 137.5592 0001892 238.6989  10.0306 15.25861361  5122
STARLINK-30989          
1 58510U 23191C   24001.25001157  .00001162  00000+0  54281-4 0  9996
2 58510  43.0006 139.3726 0001411 258.8244 341.6878 15.25895888  5208
STARLINK-30968          
1 58511U 23191D   24001.58334491 -.00023064  00000+0 -87489-3 0  9995
2 58511  43.0003 137.4679 0001894 259.4782  26.6881 15.25897894  5192
STARLINK-30982          
1 58512U 23191E   24001.58334491  .00000016  00000+0  10451-4 0  9992
2 58512  43.0002 137.4382 0001574 259.0454  39.5820 15.25895188  5134
STARLINK-30998          
1 58513U 23191F   24001.58334491 -.00291801  00000+0 -11536-1 0  9991
2 58513  43.0003 137.4085 0001649 262.8583  48.1238 15.26069966  5243
STARLINK-30983          
1 58514U 23191G   24001.25001157 -.02179328  00000+0 -72935-1 0  9997
2 58514  43.0007 138.8573 0001744 271.2282 184.2186 15.33726656  4754
STARLINK-31017          
1 58515U 23191H   23365.81266387  .00080779  00000+0  89250-3 0  9997
2 58515  43.0009 140.0544 0001610 296.0760  63.9939 15.62086881  4972
STARLINK-31028          
1 58516U 23191J   24001.25001157 -.02168850  00000+0 -83389-1 0  9992
2 58516  43.0007 139.2331 0001528 256.5453  41.7263 15.29310884  5132
STARLINK-31011          
1 58517U 23191K   24001.58334491 -.01226927  00000+0 -49809-1 0  9997
2 58517  43.0003 137.3786 0001647 260.7789  62.2462 15.26752476  5248
STARLINK-31021          
1 58518U 23191L   24001.25001157 -.02176664  00000+0 -70434-1 0  9993
2 58518  43.0006 138.4673 0001481 255.7647 354.7163 15.34773844  5206
STARLINK-31010          
1 58519U 23191M   24001.58334491 -.02214574  00000+0 -70442-1 0  9992
2 58519  43.0005 135.9838 0001224 273.3093 255.1936 15.35368908  5199
STARLINK-31003          
1 58520U 23191N   24001.25001157 -.02168913  00000+0 -81942-1 0  9990
2 58520  43.0006 139.2064 0001572 256.3098  52.8147 15.29873390  5197
STARLINK-31015          
1 58521U 23191P   24001.25001157 -.02169186  00000+0 -80280-1 0  9998
2 58521  43.0009 139.1813 0001729 258.0073  61.3920 15.30531748  5136
STARLINK-31023          
1 58522U 23191Q   24001.25001157 -.02167256  00000+0 -78560-1 0  9993
2 58522  43.0007 139.1567 0001916 265.0764  64.2665 15.31188216  5197
STARLINK-30932          
1 58523U 23191R   24001.25001157 -.02170282  00000+0 -77066-1 0  9997
2 58523  43.0007 139.1339 0001703 260.5479  78.4061 15.31848200  5128
STARLINK-30992          
1 58524U 23191S   24001.25001157 -.02170777  00000+0 -75496-1 0  9992
2 58524  43.0008 139.1114 0001702 264.9950  83.2385 15.32506229  5027
STARLINK-30948          
1 58525U 23191T   24001.25001157 -.02168411  00000+0 -73848-1 0  9994
2 58525  43.0007 139.0893 0001565 263.8515  93.3299 15.33163306  5192
STARLINK-31013          
1 58526U 23191U   24001.25001157 -.02169930  00000+0 -72363-1 0  9993
2 58526  43.0008 139.0686 0001697 262.8243 102.9715 15.33822779  5148
STARLINK-31001          
1 58527U 23191V   24001.25001157 -.02143684  00000+0 -55544-1 0  9994
2 58527  43.0007 137.1869 0001537 268.5915 136.8798 15.42054644  5046
STARLINK-31004          
1 58528U 23191W   24001.25001157 -.02169663  00000+0 -70951-1 0  9999
2 58528  43.0009 139.0477 0001740 266.4703 107.9225 15.34432763  5185
STARLINK-30988          
1 58529U 23191X   24001.25001157 -.02173345  00000+0 -69591-1 0  9990
2 58529  43.0011 139.0285 0001682 262.9812 119.3868 15.35093072  4651
STARLINK-31009          
1 58530U 23191Y   24001.25001157 -.02173940  00000+0 -68144-1 0  9996
2 58530  43.0007 139.0104 0001795 264.8360 125.1759 15.35751419  5192
STARLINK-31012          
1 58531U 23192A   24001.25001157 -.02116223  00000+0 -72006-1 0  9991
2 58531  53.1599 169.5270 0000910  96.2619  43.0738 15.33327127  4967
STARLINK-31035          
1 58532U 23192B   24001.25001157 -.01641448  00000+0 -36650-1 0  9998
2 58532  53.1607 168.3094 0000816  90.3236 293.4757 15.46243379  4977
STARLINK-31036          
1 58533U 23192C   24001.58334491  .00003143  00000+0  79325-4 0  9995
2 58533  53.1600 167.8703 0001277 201.5566  30.2312 15.43058442  5018
STARLINK-30936          
1 58534U 23192D   24001.25001157 -.02086080  00000+0 -59948-1 0  9991
2 58534  53.1598 169.4509 0001070 103.4173  74.1378 15.39076334  4969
STARLINK-31032          
1 58535U 23192E   24001.25001157 -.02117231  00000+0 -67891-1 0  9991
2 58535  53.1596 169.4932 0001133  91.3202  64.6365 15.35179787  4968
STARLINK-31037          
1 58536U 23192F   24001.58334491 -.02702956  00000+0 -85456-1 0  9999
2 58536  53.1599 167.9031 0001981  96.1320 118.6817 15.35900416  5021
STARLINK-31041          
1 58537U 23192G   24001.25001157 -.02086586  00000+0 -60071-1 0  9994
2 58537  53.1598 169.4459 0001010  96.8227  83.0589 15.39023209  4972
STARLINK-31014          
1 58538U 23192H   24001.25001157 -.02088032  00000+0 -52521-1 0  9994
2 58538  53.1599 169.4303 0001004 110.4710  77.5847 15.43051187  4915
STARLINK-31055          
1 58539U 23192J   24001.58334491 -.02136216  00000+0 -53088-1 0  9998
2 58539  53.1599 167.8464 0001627 121.3986 122.2006 15.43487003  5010
STARLINK-31019          
1 58540U 23192K   24001.25001157 -.02086649  00000+0 -56346-1 0  9998
2 58540  53.1599 169.4308 0001435  94.2918  93.1754 15.40942693  4964
STARLINK-31045          
1 58541U 23192L   24001.43330705  .00118620  00000+0  93399-3 0  9995
2 58541  53.1589 167.3703 0001939 283.0095  77.0707 15.70620167  5000
STARLINK-31030          
1 58542U 23192M   24001.58334491 -.02109395  00000+0 -52550-1 0  9993
2 58542  53.1600 167.8409 0001314  92.3404 153.8440 15.43369736  5015
STARLINK-31049          
1 58543U 23192N   24001.58334491 -.00700648  00000+0 -16280-1 0  9990
2 58543  53.1601 167.8392 0000753 114.0135 132.9960 15.44085470  5013
